OBJECT_NAME,OBJECT_ID,EPOCH,MEAN_MOTION,ECCENTRICITY,INCLINATION,RA_OF_ASC_NODE,ARG_OF_PERICENTER,MEAN_ANOMALY,EPHEMERIS_TYPE,CLASSIFICATION_TYPE,NORAD_CAT_ID,ELEMENT_SET_NO,REV_AT_EPOCH,BSTAR,MEAN_MOTION_DOT,MEAN_MOTION_DDOT
FENGYUN 1C DEB,1999-025ATZ,2024-01-20T07:33:30.701088,14.32650002,.0035501,98.9136,51.5928,184.9126,309.4281,0,U,30763,999,87137,.40936E-2,.11175E-3,0
FENGYUN 1C DEB,1999-025AUA,2024-01-20T13:21:39.006144,14.90207116,.0156214,98.7872,249.8510,299.5984,58.9743,0,U,30764,999,90800,.13389E-2,.16317E-3,0
FENGYUN 1C DEB,1999-025AUB,2024-01-20T02:59:18.438144,14.11031110,.0070633,98.8600,70.0287,16.6851,7.9684,0,U,30765,999,87170,.11759E-2,.2121E-4,0
FENGYUN 1C DEB,1999-025AUC,2024-01-10T06:43:52.178592,14.06476490,.0085841,98.6876,31.6992,260.9832,157.9713,0,U,30766,999,86858,.94693E-3,.1576E-4,0
FENGYUN 1C DEB,1999-025AUE,2024-01-20T11:50:53.433600,14.33038950,.0031267,98.6509,98.2047,7.3604,119.4186,0,U,30768,999,87904,.25818E-2,.7072E-4,0
FENGYUN 1C DEB,1999-025AUG,2024-01-20T14:16:06.837312,14.14111908,.0014804,98.6772,40.7312,104.1190,24.6308,0,U,30770,999,87119,.51582E-3,.94E-5,0
FENGYUN 1C DEB,1999-025AUH,2024-01-20T20:01:55.317792,14.25722202,.0027924,98.8757,330.0875,164.6315,195.5718,0,U,30771,999,87179,.34882E-2,.8276E-4,0
FENGYUN 1C DEB,1999-025AUL,2024-01-20T18:48:19.952928,14.22328739,.0022328,98.8711,92.8581,243.5989,238.4777,0,U,30802,999,87393,.25575E-2,.5659E-4,0
FENGYUN 1C DEB,1999-025AUM,2024-01-20T00:00:36.508320,14.05090804,.0116385,99.2809,28.1484,327.5682,99.4858,0,U,30803,999,86247,.27694E-2,.47E-4,0
FENGYUN 1C DEB,1999-025AUN,2024-01-20T12:03:25.770240,14.49592191,.0199422,98.9707,35.0042,119.6163,32.7051,0,U,30804,999,89429,.47996E-3,.2319E-4,0
FENGYUN 1C DEB,1999-025AUP,2024-01-20T14:31:38.307936,14.00732917,.0071296,98.8778,77.4468,48.6652,107.2069,0,U,30805,999,86262,.12801E-2,.1908E-4,0
FENGYUN 1C DEB,1999-025AUQ,2024-01-20T15:14:23.384832,13.68387136,.0273823,99.0981,80.7871,145.3013,7.7780,0,U,30806,999,84222,.10785E-2,.1159E-4,0
FENGYUN 1C DEB,1999-025AUT,2024-01-18T21:43:59.125152,14.19566181,.005733,98.8149,100.5805,20.2944,340.0493,0,U,30809,999,87208,.19836E-2,.4211E-4,0
FENGYUN 1C DEB,1999-025AUU,2024-01-20T11:39:20.160000,13.88975840,.0213985,98.6797,225.6232,178.6744,181.5028,0,U,30810,999,84719,.74306E-2,.10782E-3,0
FENGYUN 1C DEB,1999-025AUV,2024-01-19T05:46:46.682112,13.57847293,.0287548,98.8194,121.1280,50.4836,312.1349,0,U,30811,999,83440,.19793E-2,.1831E-4,0
FENGYUN 1C DEB,1999-025AUY,2024-01-20T17:48:26.024832,14.36307130,.00478,99.0581,301.4510,133.3919,282.2860,0,U,30814,999,87771,.3017E-2,.8899E-4,0
FENGYUN 1C DEB,1999-025AUZ,2024-01-20T04:13:26.264352,14.38371702,.0001774,99.3106,93.4435,178.7342,236.9457,0,U,30815,999,87714,.3847E-2,.11693E-3,0
FENGYUN 1C DEB,1999-025AVA,2024-01-20T04:20:03.444288,14.10629270,.0059781,98.9654,84.1274,217.1279,206.6429,0,U,30816,999,86603,.27019E-2,.4861E-4,0
FENGYUN 1C DEB,1999-025AVB,2024-01-20T11:22:46.644672,13.99363874,.0066104,98.7666,32.7846,10.2814,349.9686,0,U,30817,999,86222,.62173E-3,.879E-5,0
FENGYUN 1C DEB,1999-025AVE,2024-01-20T00:15:25.397568,14.11767934,.0054227,98.6720,127.3464,15.0982,39.3353,0,U,30820,999,86614,.28206E-2,.5173E-4,0
FENGYUN 1C DEB,1999-025AVF,2024-01-20T05:16:11.958240,14.43139867,.0096863,99.0661,108.0077,106.9575,308.2032,0,U,30821,999,88777,.10306E-2,.3613E-4,0
FENGYUN 1C DEB,1999-025AVG,2024-01-20T14:15:45.937152,14.09810254,.0076421,98.8123,59.0791,85.6947,65.0202,0,U,30822,999,86943,.46069E-3,.789E-5,0
FENGYUN 1C DEB,1999-025AVH,2024-01-20T16:24:08.155008,14.00793650,.0133905,98.6527,186.0391,218.5642,202.4833,0,U,30823,999,86366,.11546E-2,.1821E-4,0
FENGYUN 1C DEB,1999-025AVL,2024-01-20T19:59:05.241120,14.69314777,.0177153,98.8140,143.7591,11.2994,142.3865,0,U,30826,999,90081,.64074E-3,.4748E-4,0
FENGYUN 1C DEB,1999-025AVM,2024-01-20T07:27:22.728672,14.19567808,.0060144,98.9845,338.3096,25.3365,335.0738,0,U,30827,999,86660,.51223E-2,.10973E-3,0
FENGYUN 1C DEB,1999-025AVN,2024-01-20T05:20:39.851808,14.54078761,.0281814,98.3956,106.6818,189.7750,230.8054,0,U,30828,999,88512,.2906E-2,.20899E-3,0
FENGYUN 1C DEB,1999-025AVP,2024-01-16T11:00:16.938432,14.06807879,.003723,98.7503,23.6864,134.9961,225.4236,0,U,30829,999,86636,.70931E-3,.1145E-4,0
FENGYUN 1C DEB,1999-025AVQ,2024-01-19T22:26:21.941952,14.10889231,.0031597,98.6896,22.7635,0.7632,59.7023,0,U,30830,999,86825,.52887E-3,.91E-5,0
FENGYUN 1C DEB,1999-025AVR,2024-01-19T11:59:51.379872,14.28291921,.0057058,99.2643,120.3196,226.3781,133.2657,0,U,30831,999,88052,.69938E-3,.1726E-4,0
FENGYUN 1C DEB,1999-025AVT,2024-01-12T22:40:23.680992,14.23589068,.003194,99.8397,69.8414,344.2263,15.7914,0,U,30833,999,87590,.63528E-3,.1401E-4,0
FENGYUN 1C DEB,1999-025AVW,2024-01-20T08:43:36.263424,14.10368986,.0027227,98.8250,62.0157,49.6315,310.7227,0,U,30836,999,52238,.52424E-3,.891E-5,0
FENGYUN 1C DEB,1999-025AVX,2024-01-20T11:52:30.714816,14.12848141,.0032556,98.6354,22.8354,312.7713,199.0494,0,U,30837,999,87037,.61036E-3,.1098E-4,0
FENGYUN 1C DEB,1999-025AVY,2024-01-20T14:21:25.032960,14.31727657,.0050123,99.0768,249.3834,37.1301,323.3331,0,U,30838,999,87516,.31294E-2,.843E-4,0
FENGYUN 1C DEB,1999-025AWA,2024-01-20T12:26:21.483744,14.51483506,.0247017,98.0714,49.3695,9.0260,351.5256,0,U,30840,999,89061,.11053E-2,.653E-4,0
FENGYUN 1C DEB,1999-025AWD,2024-01-20T12:05:19.674816,14.50162115,.0153922,98.9295,46.6616,48.6736,312.7585,0,U,30843,999,89283,.34342E-3,.1496E-4,0
FENGYUN 1C DEB,1999-025AWF,2024-01-20T10:29:23.080416,13.76012884,.0194054,98.4487,95.1239,342.9872,75.9451,0,U,30845,999,84719,.44783E-3,.461E-5,0
FENGYUN 1C DEB,1999-025AWG,2024-01-20T14:16:07.571712,14.34031160,.0061388,99.2619,131.5436,193.7003,292.1768,0,U,30846,999,87981,.1917E-2,.5424E-4,0
FENGYUN 1C DEB,1999-025AWH,2024-01-20T11:07:56.907840,14.08612498,.0075295,98.6799,193.2665,143.4909,275.4362,0,U,30847,999,86278,.29055E-2,.5089E-4,0
FENGYUN 1C DEB,1999-025AWJ,2024-01-19T09:06:18.524448,14.26158691,.0049341,99.0327,179.4272,187.4010,172.6446,0,U,30848,999,87392,.27771E-2,.6692E-4,0
FENGYUN 1C DEB,1999-025AWK,2024-01-20T14:04:02.617824,14.12623918,.0054498,99.0983,62.0383,164.7140,348.8288,0,U,30849,999,86577,.20662E-2,.3836E-4,0
FENGYUN 1C DEB,1999-025AWL,2024-01-20T04:37:36.123744,14.06949405,.012756,98.4307,282.0939,22.8732,129.2529,0,U,30850,999,86025,.40268E-2,.7198E-4,0
FENGYUN 1C DEB,1999-025AWM,2024-01-20T07:08:56.577984,14.59452664,.0051301,98.5402,323.2045,309.0317,50.6321,0,U,30851,999,88099,.66221E-2,.32071E-3,0
FENGYUN 1C DEB,1999-025AWN,2024-01-20T14:00:08.120448,14.08188712,.0058489,98.7921,51.1369,32.1098,328.3613,0,U,30852,999,86646,.84845E-3,.1428E-4,0
FENGYUN 1C DEB,1999-025AWS,2024-01-20T12:58:59.426976,14.20276134,.0123989,98.2429,234.7311,142.7476,248.4159,0,U,30856,999,86614,.47304E-2,.10902E-3,0
FENGYUN 1C DEB,1999-025AWT,2024-01-20T20:23:33.874368,14.20683375,.0060791,98.9622,338.4388,152.4654,207.9764,0,U,30857,999,86815,.46889E-2,.10262E-3,0
FENGYUN 1C DEB,1999-025AWU,2024-01-20T15:18:43.403904,14.15837213,.0029744,98.8826,76.6010,284.9952,226.9390,0,U,30858,999,87179,.63886E-3,.1217E-4,0
FENGYUN 1C DEB,1999-025AWV,2024-01-20T06:25:00.701472,14.28579546,.0046524,98.9609,35.6050,272.5075,87.0779,0,U,30859,999,87076,.42759E-2,.10822E-3,0
FENGYUN 1C DEB,1999-025AWW,2024-01-20T14:27:05.967360,14.17943814,.0042861,98.9532,79.8815,15.1441,345.1006,0,U,30860,999,86680,.20225E-2,.4131E-4,0
FENGYUN 1C DEB,1999-025AWY,2024-01-19T02:36:25.314912,14.24395510,.0066464,98.9782,78.9221,29.9099,2.8367,0,U,30862,999,86781,.34159E-2,.8048E-4,0
FENGYUN 1C DEB,1999-025AWZ,2024-01-19T22:27:10.700064,12.35874725,.0877648,99.1618,9.3795,264.1006,113.3974,0,U,30863,999,76006,.27683E-2,.1296E-4,0
FENGYUN 1C DEB,1999-025AXD,2024-01-20T08:50:05.276832,14.15524473,.0059332,97.8633,354.9746,245.9604,272.6987,0,U,30867,999,86696,.31309E-2,.6192E-4,0
FENGYUN 1C DEB,1999-025AXE,2024-01-20T07:01:06.434976,14.10340890,.0138121,98.3142,304.8069,41.9976,108.8304,0,U,30868,999,86947,.32458E-3,.591E-5,0
FENGYUN 1C DEB,1999-025AXJ,2024-01-20T11:59:54.709728,14.32377786,.0045119,99.2383,18.2716,243.5439,269.3117,0,U,30872,999,87799,.17188E-2,.4652E-4,0
FENGYUN 1C DEB,1999-025AXK,2024-01-20T06:13:18.543360,14.17980583,.0111267,98.6136,34.5709,124.9417,236.2271,0,U,30873,999,87374,.27984E-3,.567E-5,0
FENGYUN 1C DEB,1999-025AXL,2024-01-19T01:38:47.656032,14.17322910,.0042643,98.5687,70.2980,242.4291,147.9412,0,U,30874,999,87186,.76116E-3,.151E-4,0
FENGYUN 1C DEB,1999-025AXN,2024-01-20T12:34:21.332928,13.98101446,.0069084,98.7737,28.1964,38.5870,112.8627,0,U,30876,999,86033,.40662E-3,.549E-5,0
FENGYUN 1C DEB,1999-025AXP,2024-01-20T10:18:51.300288,14.75332560,.0032305,98.6118,357.3561,98.4241,52.6201,0,U,30877,999,87341,.14502E-1,.100507E-2,0
FENGYUN 1C DEB,1999-025AXQ,2024-01-20T12:20:17.744928,14.09344189,.0042775,98.7274,36.3061,97.1362,57.5048,0,U,30878,999,86607,.86967E-3,.1486E-4,0
FENGYUN 1C DEB,1999-025AXR,2024-01-20T14:38:11.770944,14.23121353,.0342483,99.3510,159.3851,158.8763,202.6958,0,U,30879,999,51942,.83081E-2,.34508E-3,0
FENGYUN 1C DEB,1999-025AXS,2024-01-20T10:38:52.469376,14.18514805,.0023119,98.8486,86.0868,298.1468,61.7371,0,U,30880,999,86873,.1916E-2,.3929E-4,0
FENGYUN 1C DEB,1999-025AXU,2024-01-14T23:10:19.019424,14.65752325,.0211458,98.0384,71.5660,127.1424,234.9303,0,U,30882,999,89439,.16915E-2,.1282E-3,0
FENGYUN 1C DEB,1999-025AXV,2024-01-20T00:57:13.080672,14.13589533,.0114496,98.4552,91.6288,48.7063,69.6602,0,U,30883,999,87127,.25119E-3,.464E-5,0
FENGYUN 1C DEB,1999-025AXW,2024-01-19T18:07:39.419040,14.51572565,.009522,98.8422,316.7139,305.0745,54.1546,0,U,30884,999,88532,.32593E-2,.13811E-3,0
FENGYUN 1C DEB,1999-025AXX,2024-01-20T09:02:58.383168,14.29948059,.0071729,99.0131,177.3465,100.3365,290.6502,0,U,30885,999,87173,.37419E-2,.9883E-4,0
